STARLINK-37096          
1 68239U 26054H   26086.50002315 -.00012930  00000+0 -62067-4 0  9994
2 68239  53.1589 223.3459 0000779  74.3052 206.0100 15.80873489  2771
STARLINK-37092          
1 68240U 26054J   26086.50002315  .00034956  00000+0  18004-3 0  9997
2 68240  53.1591 223.3548 0000830  94.3651 181.6704 15.80858877  2772
STARLINK-37094          
1 68241U 26054K   26086.50002315  .00032574  00000+0  16785-3 0  9996
2 68241  53.1593 223.3370 0001048  82.3976 202.1673 15.80885912  2760
STARLINK-36356          
1 68242U 26054L   26086.50002315  .00074998  00000+0  38044-3 0  9995
2 68242  53.1594 223.3279 0000900  90.0674 198.7775 15.80860290  2818
STARLINK-36345          
1 68243U 26054M   26086.50002315 -.01006958  00000+0 -56386-2 0  9998
2 68243  53.1594 223.3193 0000816  99.6436 193.4356 15.81212288  2817
STARLINK-36310          
1 68244U 26054N   26086.50002315  .00010284  00000+0  55520-4 0  9994
2 68244  53.1595 223.3015 0001351  93.9067 207.7396 15.80898714  2810
STARLINK-36247          
1 68245U 26054P   26086.50002315 -.00028447  00000+0 -14105-3 0  9990
2 68245  53.1595 223.3107 0001124 119.1317 178.2760 15.80874238  2812
STARLINK-37043          
1 68246U 26054Q   26086.50002315 -.00023870  00000+0 -11761-3 0  9991
2 68246  53.1596 223.2929 0001027  76.3298 229.5957 15.80894335  2772
STARLINK-37044          
1 68247U 26054R   26086.50002315 -.00073514  00000+0 -37113-3 0  9991
2 68247  53.1596 223.2838 0001133  78.1149 232.0838 15.80927959  2771
STARLINK-36997          
1 68248U 26054S   26086.50002315 -.00051685  00000+0 -25942-3 0  9994
2 68248  53.1596 223.2751 0001482  82.5323 231.9517 15.80910346  2770
STARLINK-37141          
1 68249U 26054T   26086.50002315 -.00043077  00000+0 -21568-3 0  9991
2 68249  53.1597 223.2666 0000545  59.0247 259.7301 15.80885862  2852
STARLINK-37087          
1 68250U 26054U   26086.50002315 -.00109124  00000+0 -55493-3 0  9993
2 68250  53.1598 223.2578 0001062 102.7215 220.3053 15.80927484  2779
