CCSDS_OMM_VERS = 2.0
CREATION_DATE  = 
ORIGINATOR     = 

OBJECT_NAME    = STARLINK-37096
OBJECT_ID      = 2026-054H
CENTER_NAME    = EARTH
REF_FRAME      = TEME
TIME_SYSTEM    = UTC
MEAN_ELEMENT_THEORY = SGP/SGP4

EPOCH          = 2026-03-27T12:00:02.000160
MEAN_MOTION    = 15.80873489
ECCENTRICITY   = .00007797
INCLINATION    = 53.1589
RA_OF_ASC_NODE = 223.3459
ARG_OF_PERICENTER = 74.3052
MEAN_ANOMALY   = 206.0100

EPHEMERIS_TYPE = 0
CLASSIFICATION_TYPE = U
NORAD_CAT_ID   = 68239
ELEMENT_SET_NO = 999
REV_AT_EPOCH   = 277
BSTAR          = -.62066981E-4
MEAN_MOTION_DOT = -.1293E-3
MEAN_MOTION_DDOT = 0

CCSDS_OMM_VERS = 2.0
CREATION_DATE  = 
ORIGINATOR     = 

OBJECT_NAME    = STARLINK-37092
OBJECT_ID      = 2026-054J
CENTER_NAME    = EARTH
REF_FRAME      = TEME
TIME_SYSTEM    = UTC
MEAN_ELEMENT_THEORY = SGP/SGP4

EPOCH          = 2026-03-27T12:00:02.000160
MEAN_MOTION    = 15.80858877
ECCENTRICITY   = .000083
INCLINATION    = 53.1591
RA_OF_ASC_NODE = 223.3548
ARG_OF_PERICENTER = 94.3651
MEAN_ANOMALY   = 181.6704

EPHEMERIS_TYPE = 0
CLASSIFICATION_TYPE = U
NORAD_CAT_ID   = 68240
ELEMENT_SET_NO = 999
REV_AT_EPOCH   = 277
BSTAR          = .18004255E-3
MEAN_MOTION_DOT = .34956E-3
MEAN_MOTION_DDOT = 0

CCSDS_OMM_VERS = 2.0
CREATION_DATE  = 
ORIGINATOR     = 

OBJECT_NAME    = STARLINK-37094
OBJECT_ID      = 2026-054K
CENTER_NAME    = EARTH
REF_FRAME      = TEME
TIME_SYSTEM    = UTC
MEAN_ELEMENT_THEORY = SGP/SGP4

EPOCH          = 2026-03-27T12:00:02.000160
MEAN_MOTION    = 15.80885912
ECCENTRICITY   = .00010489
INCLINATION    = 53.1593
RA_OF_ASC_NODE = 223.3370
ARG_OF_PERICENTER = 82.3976
MEAN_ANOMALY   = 202.1673

EPHEMERIS_TYPE = 0
CLASSIFICATION_TYPE = U
NORAD_CAT_ID   = 68241
ELEMENT_SET_NO = 999
REV_AT_EPOCH   = 276
BSTAR          = .16785262E-3
MEAN_MOTION_DOT = .32574E-3
MEAN_MOTION_DDOT = 0

CCSDS_OMM_VERS = 2.0
CREATION_DATE  = 
ORIGINATOR     = 

OBJECT_NAME    = STARLINK-36356
OBJECT_ID      = 2026-054L
CENTER_NAME    = EARTH
REF_FRAME      = TEME
TIME_SYSTEM    = UTC
MEAN_ELEMENT_THEORY = SGP/SGP4

EPOCH          = 2026-03-27T12:00:02.000160
MEAN_MOTION    = 15.80860290
ECCENTRICITY   = .00009009
INCLINATION    = 53.1594
RA_OF_ASC_NODE = 223.3279
ARG_OF_PERICENTER = 90.0674
MEAN_ANOMALY   = 198.7775

EPHEMERIS_TYPE = 0
CLASSIFICATION_TYPE = U
NORAD_CAT_ID   = 68242
ELEMENT_SET_NO = 999
REV_AT_EPOCH   = 281
BSTAR          = .38044472E-3
MEAN_MOTION_DOT = .74998E-3
MEAN_MOTION_DDOT = 0

CCSDS_OMM_VERS = 2.0
CREATION_DATE  = 
ORIGINATOR     = 

OBJECT_NAME    = STARLINK-36345
OBJECT_ID      = 2026-054M
CENTER_NAME    = EARTH
REF_FRAME      = TEME
TIME_SYSTEM    = UTC
MEAN_ELEMENT_THEORY = SGP/SGP4

EPOCH          = 2026-03-27T12:00:02.000160
MEAN_MOTION    = 15.81212288
ECCENTRICITY   = .00008162
INCLINATION    = 53.1594
RA_OF_ASC_NODE = 223.3193
ARG_OF_PERICENTER = 99.6436
MEAN_ANOMALY   = 193.4356

EPHEMERIS_TYPE = 0
CLASSIFICATION_TYPE = U
NORAD_CAT_ID   = 68243
ELEMENT_SET_NO = 999
REV_AT_EPOCH   = 281
BSTAR          = -.56385615E-2
MEAN_MOTION_DOT = -.1006958E-1
MEAN_MOTION_DDOT = 0

CCSDS_OMM_VERS = 2.0
CREATION_DATE  = 
ORIGINATOR     = 

OBJECT_NAME    = STARLINK-36310
OBJECT_ID      = 2026-054N
CENTER_NAME    = EARTH
REF_FRAME      = TEME
TIME_SYSTEM    = UTC
MEAN_ELEMENT_THEORY = SGP/SGP4

EPOCH          = 2026-03-27T12:00:02.000160
MEAN_MOTION    = 15.80898714
ECCENTRICITY   = .00013515
INCLINATION    = 53.1595
RA_OF_ASC_NODE = 223.3015
ARG_OF_PERICENTER = 93.9067
MEAN_ANOMALY   = 207.7396

EPHEMERIS_TYPE = 0
CLASSIFICATION_TYPE = U
NORAD_CAT_ID   = 68244
ELEMENT_SET_NO = 999
REV_AT_EPOCH   = 281
BSTAR          = .55520248E-4
MEAN_MOTION_DOT = .10284E-3
MEAN_MOTION_DDOT = 0

CCSDS_OMM_VERS = 2.0
CREATION_DATE  = 
ORIGINATOR     = 

OBJECT_NAME    = STARLINK-36247
OBJECT_ID      = 2026-054P
CENTER_NAME    = EARTH
REF_FRAME      = TEME
TIME_SYSTEM    = UTC
MEAN_ELEMENT_THEORY = SGP/SGP4

EPOCH          = 2026-03-27T12:00:02.000160
MEAN_MOTION    = 15.80874238
ECCENTRICITY   = .00011244
INCLINATION    = 53.1595
RA_OF_ASC_NODE = 223.3107
ARG_OF_PERICENTER = 119.1317
MEAN_ANOMALY   = 178.2760

EPHEMERIS_TYPE = 0
CLASSIFICATION_TYPE = U
NORAD_CAT_ID   = 68245
ELEMENT_SET_NO = 999
REV_AT_EPOCH   = 281
BSTAR          = -.14104943E-3
MEAN_MOTION_DOT = -.28447E-3
MEAN_MOTION_DDOT = 0

CCSDS_OMM_VERS = 2.0
CREATION_DATE  = 
ORIGINATOR     = 

OBJECT_NAME    = STARLINK-37043
OBJECT_ID      = 2026-054Q
CENTER_NAME    = EARTH
REF_FRAME      = TEME
TIME_SYSTEM    = UTC
MEAN_ELEMENT_THEORY = SGP/SGP4

EPOCH          = 2026-03-27T12:00:02.000160
MEAN_MOTION    = 15.80894335
ECCENTRICITY   = .00010279
INCLINATION    = 53.1596
RA_OF_ASC_NODE = 223.2929
ARG_OF_PERICENTER = 76.3298
MEAN_ANOMALY   = 229.5957

EPHEMERIS_TYPE = 0
CLASSIFICATION_TYPE = U
NORAD_CAT_ID   = 68246
ELEMENT_SET_NO = 999
REV_AT_EPOCH   = 277
BSTAR          = -.11761081E-3
MEAN_MOTION_DOT = -.2387E-3
MEAN_MOTION_DDOT = 0

CCSDS_OMM_VERS = 2.0
CREATION_DATE  = 
ORIGINATOR     = 

OBJECT_NAME    = STARLINK-37044
OBJECT_ID      = 2026-054R
CENTER_NAME    = EARTH
REF_FRAME      = TEME
TIME_SYSTEM    = UTC
MEAN_ELEMENT_THEORY = SGP/SGP4

EPOCH          = 2026-03-27T12:00:02.000160
MEAN_MOTION    = 15.80927959
ECCENTRICITY   = .0001133
INCLINATION    = 53.1596
RA_OF_ASC_NODE = 223.2838
ARG_OF_PERICENTER = 78.1149
MEAN_ANOMALY   = 232.0838

EPHEMERIS_TYPE = 0
CLASSIFICATION_TYPE = U
NORAD_CAT_ID   = 68247
ELEMENT_SET_NO = 999
REV_AT_EPOCH   = 277
BSTAR          = -.37113289E-3
MEAN_MOTION_DOT = -.73514E-3
MEAN_MOTION_DDOT = 0

CCSDS_OMM_VERS = 2.0
CREATION_DATE  = 
ORIGINATOR     = 

OBJECT_NAME    = STARLINK-36997
OBJECT_ID      = 2026-054S
CENTER_NAME    = EARTH
REF_FRAME      = TEME
TIME_SYSTEM    = UTC
MEAN_ELEMENT_THEORY = SGP/SGP4

EPOCH          = 2026-03-27T12:00:02.000160
MEAN_MOTION    = 15.80910346
ECCENTRICITY   = .00014827
INCLINATION    = 53.1596
RA_OF_ASC_NODE = 223.2751
ARG_OF_PERICENTER = 82.5323
MEAN_ANOMALY   = 231.9517

EPHEMERIS_TYPE = 0
CLASSIFICATION_TYPE = U
NORAD_CAT_ID   = 68248
ELEMENT_SET_NO = 999
REV_AT_EPOCH   = 277
BSTAR          = -.25941545E-3
MEAN_MOTION_DOT = -.51685E-3
MEAN_MOTION_DDOT = 0

CCSDS_OMM_VERS = 2.0
CREATION_DATE  = 
ORIGINATOR     = 

OBJECT_NAME    = STARLINK-37141
OBJECT_ID      = 2026-054T
CENTER_NAME    = EARTH
REF_FRAME      = TEME
TIME_SYSTEM    = UTC
MEAN_ELEMENT_THEORY = SGP/SGP4

EPOCH          = 2026-03-27T12:00:02.000160
MEAN_MOTION    = 15.80885862
ECCENTRICITY   = .00005455
INCLINATION    = 53.1597
RA_OF_ASC_NODE = 223.2666
ARG_OF_PERICENTER = 59.0247
MEAN_ANOMALY   = 259.7301

EPHEMERIS_TYPE = 0
CLASSIFICATION_TYPE = U
NORAD_CAT_ID   = 68249
ELEMENT_SET_NO = 999
REV_AT_EPOCH   = 285
BSTAR          = -.21567722E-3
MEAN_MOTION_DOT = -.43077E-3
MEAN_MOTION_DDOT = 0

CCSDS_OMM_VERS = 2.0
CREATION_DATE  = 
ORIGINATOR     = 

OBJECT_NAME    = STARLINK-37087
OBJECT_ID      = 2026-054U
CENTER_NAME    = EARTH
REF_FRAME      = TEME
TIME_SYSTEM    = UTC
MEAN_ELEMENT_THEORY = SGP/SGP4

EPOCH          = 2026-03-27T12:00:02.000160
MEAN_MOTION    = 15.80927484
ECCENTRICITY   = .00010624
INCLINATION    = 53.1598
RA_OF_ASC_NODE = 223.2578
ARG_OF_PERICENTER = 102.7215
MEAN_ANOMALY   = 220.3053

EPHEMERIS_TYPE = 0
CLASSIFICATION_TYPE = U
NORAD_CAT_ID   = 68250
ELEMENT_SET_NO = 999
REV_AT_EPOCH   = 277
BSTAR          = -.55492793E-3
MEAN_MOTION_DOT = -.109124E-2
MEAN_MOTION_DDOT = 0

